SHENZHOU-21 (SZ-21)     
1 66263U 25246A   25316.15916016  .00037252  00000+0  43345-3 0  9998
2 66263  41.4652 202.3333 0004388   9.4250 350.6671 15.60957853258132
